*******************************************************************************
 Revised: Jun 7, 2021            Pluto Barycenter                             9
 
 Dynamical point:
 ---------------
 The location of the center-of-mass of the Pluto system. The point about which 
 Pluto and its satellites revolve. See 999 (or 134340) for Pluto planet center,
 901 for Charon, 902 for Nyx, 903 for Hydra, 904 for Kerberos, 905 for Styx.
*******************************************************************************


*******************************************************************************
Ephemeris / WWW_USER Mon Jun 16 07:55:49 2025 Pasadena, USA      / Horizons
*******************************************************************************
Target body name: Pluto Barycenter (9)            {source: DE441}
Center body name: Solar System Barycenter (0)     {source: DE441}
Center-site name: BODY CENTER
*******************************************************************************
Start time      : A.D. 2024-Jan-01 00:00:00.0000 TDB
Stop  time      : A.D. 2024-Mar-01 00:00:00.0000 TDB
Step-size       : 1440 minutes
*******************************************************************************
Center geodetic : 0.0, 0.0, 0.0                   {E-lon(deg),Lat(deg),Alt(km)}
Center cylindric: 0.0, 0.0, 0.0                   {E-lon(deg),Dxy(km),Dz(km)}
Center radii    : (undefined)
Keplerian GM    : 1.3289051589390622E+11 km^3/s^2
Output units    : KM-S, deg, Julian Day Number (Tp)
Calendar mode   : Mixed Julian/Gregorian
Output type     : GEOMETRIC osculating elements
Output format   : 10
Reference frame : Ecliptic of J2000.0
*******************************************************************************
            JDTDB,            Calendar Date (TDB),                     EC,                     QR,                     IN,                     OM,                      W,                     Tp,                      N,                     MA,                     TA,                      A,                     AD,                     PR,
**************************************************************************************************************************************************************************************************************************************************************************************************************************************************
$$SOE
2460354.500000000, A.D. 2024-Feb-14 00:00:00.0000,  2.490181416538156E-01,  4.436403459297364E+09,  1.714066236838272E+01,  1.103009860822066E+02,  1.137741709719255E+02,  2.447808845107672E+06,  4.600099672797612E-08,  4.986253120195826E+01,  7.611408970969900E+01,  5.907470879612499E+09,  7.378538299927634E+09,  7.825917384547914E+09,
2460355.500000000, A.D. 2024-Feb-15 00:00:00.0000,  2.490181478892645E-01,  4.436403456497262E+09,  1.714066232246566E+01,  1.103009860550412E+02,  1.137741717386656E+02,  2.447808845269060E+06,  4.600099619860372E-08,  4.986650447278688E+01,  7.611900247657393E+01,  5.907470924934011E+09,  7.378538393370759E+09,  7.825917474607368E+09,
2460356.500000000, A.D. 2024-Feb-16 00:00:00.0000,  2.490181541188228E-01,  4.436403453671614E+09,  1.714066227662941E+01,  1.103009860279099E+02,  1.137741725031631E+02,  2.447808845430109E+06,  4.600099567016994E-08,  4.987047774588530E+01,  7.612391505343452E+01,  5.907470970175165E+09,  7.378538486678717E+09,  7.825917564507144E+09,
2460357.500000000, A.D. 2024-Feb-17 00:00:00.0000,  2.490181603424822E-01,  4.436403450820547E+09,  1.714066223087377E+01,  1.103009860008126E+02,  1.137741732654241E+02,  2.447808845590821E+06,  4.600099514267350E-08,  4.987445102124963E+01,  7.612882744028181E+01,  5.907471015336071E+09,  7.378538579851595E+09,  7.825917654247457E+09,
2460358.500000000, A.D. 2024-Feb-18 00:00:00.0000,  2.490181665602344E-01,  4.436403447944192E+09,  1.714066218519853E+01,  1.103009859737491E+02,  1.137741740254546E+02,  2.447808845751197E+06,  4.600099461611313E-08,  4.987842429887604E+01,  7.613373963711690E+01,  5.907471060416836E+09,  7.378538672889480E+09,  7.825917743828520E+09,
2460359.500000000, A.D. 2024-Feb-19 00:00:00.0000,  2.490181727720719E-01,  4.436403445042674E+09,  1.714066213960347E+01,  1.103009859467196E+02,  1.137741747832611E+02,  2.447808845911236E+06,  4.600099409048758E-08,  4.988239757876064E+01,  7.613865164394083E+01,  5.907471105417570E+09,  7.378538765792466E+09,  7.825917833250551E+09,
2460360.500000000, A.D. 2024-Feb-20 00:00:00.0000,  2.490181789779866E-01,  4.436403442116127E+09,  1.714066209408839E+01,  1.103009859197238E+02,  1.137741755388495E+02,  2.447808846070940E+06,  4.600099356579555E-08,  4.988637086089951E+01,  7.614356346075471E+01,  5.907471150338383E+09,  7.378538858560638E+09,  7.825917922513770E+09,
2460361.500000000, A.D. 2024-Feb-21 00:00:00.0000,  2.490181851779707E-01,  4.436403439164674E+09,  1.714066204865307E+01,  1.103009858927617E+02,  1.137741762922262E+02,  2.447808846230309E+06,  4.600099304203579E-08,  4.989034414528884E+01,  7.614847508755955E+01,  5.907471195179380E+09,  7.378538951194087E+09,  7.825918011618386E+09,
2460362.500000000, A.D. 2024-Feb-22 00:00:00.0000,  2.490181913720165E-01,  4.436403436188447E+09,  1.714066200329730E+01,  1.103009858658332E+02,  1.137741770433971E+02,  2.447808846389345E+06,  4.600099251920699E-08,  4.989431743192472E+01,  7.615338652435658E+01,  5.907471239940677E+09,  7.378539043692906E+09,  7.825918100564628E+09,
2460363.500000000, A.D. 2024-Feb-23 00:00:00.0000,  2.490181975601169E-01,  4.436403433187572E+09,  1.714066195802087E+01,  1.103009858389382E+02,  1.137741777923689E+02,  2.447808846548047E+06,  4.600099199730777E-08,  4.989829072080285E+01,  7.615829777114645E+01,  5.907471284622390E+09,  7.378539136057207E+09,  7.825918189352726E+09,
2460364.500000000, A.D. 2024-Feb-24 00:00:00.0000,  2.490182037422639E-01,  4.436403430162177E+09,  1.714066191282358E+01,  1.103009858120767E+02,  1.137741785391472E+02,  2.447808846706417E+06,  4.600099147633699E-08,  4.990226401192005E+01,  7.616320882793086E+01,  5.907471329224614E+09,  7.378539228287051E+09,  7.825918277982872E+09,
2460365.500000000, A.D. 2024-Feb-25 00:00:00.0000,  2.490182099184507E-01,  4.436403427112398E+09,  1.714066186770518E+01,  1.103009857852485E+02,  1.137741792837391E+02,  2.447808846864455E+06,  4.600099095629307E-08,  4.990623730527128E+01,  7.616811969470990E+01,  5.907471373747489E+09,  7.378539320382580E+09,  7.825918366455341E+09,
2460366.500000000, A.D. 2024-Feb-26 00:00:00.0000,  2.490182160886694E-01,  4.436403424038356E+09,  1.714066182266549E+01,  1.103009857584536E+02,  1.137741800261501E+02,  2.447808847022161E+06,  4.600099043717493E-08,  4.991021060085330E+01,  7.617303037148534E+01,  5.907471418191106E+09,  7.378539412343856E+09,  7.825918454770314E+09,
2460367.500000000, A.D. 2024-Feb-27 00:00:00.0000,  2.490182222529133E-01,  4.436403420940182E+09,  1.714066177770427E+01,  1.103009857316920E+02,  1.137741807663870E+02,  2.447808847179538E+06,  4.600098991898105E-08,  4.991418389866173E+01,  7.617794085825771E+01,  5.907471462555593E+09,  7.378539504171005E+09,  7.825918542928049E+09,
2460368.500000000, A.D. 2024-Feb-28 00:00:00.0000,  2.490182284111757E-01,  4.436403417818006E+09,  1.714066173282131E+01,  1.103009857049635E+02,  1.137741815044560E+02,  2.447808847336584E+06,  4.600098940171008E-08,  4.991815719869242E+01,  7.618285115502802E+01,  5.907471506841068E+09,  7.378539595864131E+09,  7.825918630928774E+09,
2460369.500000000, A.D. 2024-Feb-29 00:00:00.0000,  2.490182345634490E-01,  4.436403414671708E+09,  1.714066168801608E+01,  1.103009856782678E+02,  1.137741822403494E+02,  2.447808847493300E+06,  4.600098888536460E-08,  4.992213050095291E+01,  7.618776126181147E+01,  5.907471551047309E+09,  7.378539687422910E+09,  7.825918718772053E+09,
2460370.500000000, A.D. 2024-Mar-01 00:00:00.0000,  2.490182407097223E-01,  4.436403411501626E+09,  1.714066164328866E+01,  1.103009856516051E+02,  1.137741829740847E+02,  2.447808847649687E+06,  4.600098836994031E-08,  4.992610380543022E+01,  7.619267117859755E+01,  5.907471595174685E+09,  7.378539778847743E+09,  7.825918806458617E+09,
